[{"OBJECT_NAME":"STARLINK-3282","OBJECT_ID":"2021-125X","EPOCH":"2026-03-09T21:32:46.817376","MEAN_MOTION":15.08838044,"ECCENTRICITY":0.00010992,"INCLINATION":53.2159,"RA_OF_ASC_NODE":248.1843,"ARG_OF_PERICENTER":120.2362,"MEAN_ANOMALY":239.8739,"EPHEMERIS_TYPE":0,"CLASSIFICATION_TYPE":"U","NORAD_CAT_ID":50177,"ELEMENT_SET_NO":999,"REV_AT_EPOCH":23663,"BSTAR":-0.00012955644,"MEAN_MOTION_DOT":-2.349e-5,"MEAN_MOTION_DDOT":0},{"OBJECT_NAME":"LEMUR-2-KREMPEL-BRO1","OBJECT_ID":"2025-061G","EPOCH":"2026-03-09T22:19:45.751296","MEAN_MOTION":15.13773226,"ECCENTRICITY":0.0017497,"INCLINATION":97.5535,"RA_OF_ASC_NODE":45.5283,"ARG_OF_PERICENTER":227.946,"MEAN_ANOMALY":132.0284,"EPHEMERIS_TYPE":0,"CLASSIFICATION_TYPE":"U","NORAD_CAT_ID":63357,"ELEMENT_SET_NO":999,"REV_AT_EPOCH":5261,"BSTAR":0.00031891713,"MEAN_MOTION_DOT":5.707e-5,"MEAN_MOTION_DDOT":0}]
